{
  "type": "FeatureCollection",
  "features": [
    {
      "type": "Feature",
      "properties": {
        "norad_id": 66636,
        "name": "STARLINK-35968",
        "group": "last-30-days",
        "lat": 13.336909952442339,
        "lon": -176.39189905101668,
        "alt_km": 422.3754737202571,
        "timestamp": "2025-12-15T14:57:56.621355+00:00",
        "meta_object_name": "STARLINK-35968",
        "meta_object_id": "2025-271V",
        "meta_epoch": "2025-12-14T20:00:06.000192",
        "meta_mean_motion": 15.49688559,
        "meta_eccentricity": 8.551e-05,
        "meta_inclination": 53.1596,
        "meta_ra_of_asc_node": 177.1457,
        "meta_arg_of_pericenter": 108.1543,
        "meta_mean_anomaly": 180.737,
        "meta_ephemeris_type": 0,
        "meta_classification_type": "U",
        "meta_norad_cat_id": 66636,
        "meta_element_set_no": 999,
        "meta_rev_at_epoch": 458,
        "meta_bstar": -0.022555228,
        "meta_mean_motion_dot": -0.01161966,
        "meta_mean_motion_ddot": 0,
        "tle_line1": "1 66636U 25271V   25348.83340278 -.01161966  00000+0 -22555-1 0  9992",
        "tle_line2": "2 66636  53.1596 177.1457 0000855 108.1543 180.7370 15.49688559  4583"
      },
      "geometry": {
        "type": "Point",
        "coordinates": [
          -176.39189905101668,
          13.336909952442339
        ]
      }
    },
    {
      "type": "Feature",
      "properties": {
        "norad_id": 66637,
        "name": "STARLINK-35953",
        "group": "last-30-days",
        "lat": 16.263472867554395,
        "lon": -174.00394324153737,
        "alt_km": 416.56106526858275,
        "timestamp": "2025-12-15T14:57:56.621366+00:00",
        "meta_object_name": "STARLINK-35953",
        "meta_object_id": "2025-271W",
        "meta_epoch": "2025-12-14T20:00:06.000192",
        "meta_mean_motion": 15.49285388,
        "meta_eccentricity": 9.846e-05,
        "meta_inclination": 53.1596,
        "meta_ra_of_asc_node": 177.1416,
        "meta_arg_of_pericenter": 37.0071,
        "meta_mean_anomaly": 253.8694,
        "meta_ephemeris_type": 0,
        "meta_classification_type": "U",
        "meta_norad_cat_id": 66637,
        "meta_element_set_no": 999,
        "meta_rev_at_epoch": 458,
        "meta_bstar": 0.00071257125,
        "meta_mean_motion_dot": 0.00039349,
        "meta_mean_motion_ddot": 0,
        "tle_line1": "1 66637U 25271W   25348.83340278  .00039349  00000+0  71257-3 0  9994",
        "tle_line2": "2 66637  53.1596 177.1416 0000984  37.0071 253.8694 15.49285388  4582"
      },
      "geometry": {
        "type": "Point",
        "coordinates": [
          -174.00394324153737,
          16.263472867554395
        ]
      }
    },
    {
      "type": "Feature",
      "properties": {
        "norad_id": 66638,
        "name": "STARLINK-35972",
        "group": "last-30-days",
        "lat": 17.75081457512884,
        "lon": -172.75452181040197,
        "alt_km": 416.55954007700893,
        "timestamp": "2025-12-15T14:57:56.621376+00:00",
        "meta_object_name": "STARLINK-35972",
        "meta_object_id": "2025-271X",
        "meta_epoch": "2025-12-14T20:00:06.000192",
        "meta_mean_motion": 15.49285484,
        "meta_eccentricity": 7.117e-05,
        "meta_inclination": 53.1597,
        "meta_ra_of_asc_node": 177.1381,
        "meta_arg_of_pericenter": 50.3419,
        "meta_mean_anomaly": 242.4514,
        "meta_ephemeris_type": 0,
        "meta_classification_type": "U",
        "meta_norad_cat_id": 66638,
        "meta_element_set_no": 999,
        "meta_rev_at_epoch": 458,
        "meta_bstar": 0.00064727914,
        "meta_mean_motion_dot": 0.00035685,
        "meta_mean_motion_ddot": 0,
        "tle_line1": "1 66638U 25271X   25348.83340278  .00035685  00000+0  64728-3 0  9999",
        "tle_line2": "2 66638  53.1597 177.1381 0000711  50.3419 242.4514 15.49285484  4589"
      },
      "geometry": {
        "type": "Point",
        "coordinates": [
          -172.75452181040197,
          17.75081457512884
        ]
      }
    },
    {
      "type": "Feature",
      "properties": {
        "norad_id": 66639,
        "name": "STARLINK-35908",
        "group": "last-30-days",
        "lat": 19.23586236106406,
        "lon": -171.47996296724412,
        "alt_km": 416.4667446834601,
        "timestamp": "2025-12-15T14:57:56.621386+00:00",
        "meta_object_name": "STARLINK-35908",
        "meta_object_id": "2025-271Y",
        "meta_epoch": "2025-12-14T20:00:06.000192",
        "meta_mean_motion": 15.49264229,
        "meta_eccentricity": 6.592e-05,
        "meta_inclination": 53.1595,
        "meta_ra_of_asc_node": 177.1335,
        "meta_arg_of_pericenter": 61.7687,
        "meta_mean_anomaly": 233.005,
        "meta_ephemeris_type": 0,
        "meta_classification_type": "U",
        "meta_norad_cat_id": 66639,
        "meta_element_set_no": 999,
        "meta_rev_at_epoch": 458,
        "meta_bstar": 0.00062158864,
        "meta_mean_motion_dot": 0.00034219,
        "meta_mean_motion_ddot": 0,
        "tle_line1": "1 66639U 25271Y   25348.83340278  .00034219  00000+0  62159-3 0  9998",
        "tle_line2": "2 66639  53.1595 177.1335 0000659  61.7687 233.0050 15.49264229  4586"
      },
      "geometry": {
        "type": "Point",
        "coordinates": [
          -171.47996296724412,
          19.23586236106406
        ]
      }
    },
    {
      "type": "Feature",
      "properties": {
        "norad_id": 66640,
        "name": "STARLINK-35921",
        "group": "last-30-days",
        "lat": 20.713575123537716,
        "lon": -170.18000538828613,
        "alt_km": 415.96410419940366,
        "timestamp": "2025-12-15T14:57:56.621395+00:00",
        "meta_object_name": "STARLINK-35921",
        "meta_object_id": "2025-271Z",
        "meta_epoch": "2025-12-14T20:00:06.000192",
        "meta_mean_motion": 15.49285605,
        "meta_eccentricity": 0.000122,
        "meta_inclination": 53.1596,
        "meta_ra_of_asc_node": 177.1299,
        "meta_arg_of_pericenter": 73.791,
        "meta_mean_anomaly": 222.8376,
        "meta_ephemeris_type": 0,
        "meta_classification_type": "U",
        "meta_norad_cat_id": 66640,
        "meta_element_set_no": 999,
        "meta_rev_at_epoch": 458,
        "meta_bstar": 0.00068544869,
        "meta_mean_motion_dot": 0.00037827,
        "meta_mean_motion_ddot": 0,
        "tle_line1": "1 66640U 25271Z   25348.83340278  .00037827  00000+0  68545-3 0  9993",
        "tle_line2": "2 66640  53.1596 177.1299 0001220  73.7910 222.8376 15.49285605  4583"
      },
      "geometry": {
        "type": "Point",
        "coordinates": [
          -170.18000538828613,
          20.713575123537716
        ]
      }
    },
    {
      "type": "Feature",
      "properties": {
        "norad_id": 66641,
        "name": "STARLINK-35923",
        "group": "last-30-days",
        "lat": 26.489239783967587,
        "lon": -164.7267656657256,
        "alt_km": 415.2186049053789,
        "timestamp": "2025-12-15T14:57:56.621404+00:00",
        "meta_object_name": "STARLINK-35923",
        "meta_object_id": "2025-271AA",
        "meta_epoch": "2025-12-14T20:00:06.000192",
        "meta_mean_motion": 15.49273517,
        "meta_eccentricity": 0.00010635,
        "meta_inclination": 53.1595,
        "meta_ra_of_asc_node": 177.1129,
        "meta_arg_of_pericenter": 86.5601,
        "meta_mean_anomaly": 217.7537,
        "meta_ephemeris_type": 0,
        "meta_classification_type": "U",
        "meta_norad_cat_id": 66641,
        "meta_element_set_no": 999,
        "meta_rev_at_epoch": 458,
        "meta_bstar": 0.00057634321,
        "meta_mean_motion_dot": 0.00031696,
        "meta_mean_motion_ddot": 0,
        "tle_line1": "1 66641U 25271AA  25348.83340278  .00031696  00000+0  57634-3 0  9999",
        "tle_line2": "2 66641  53.1595 177.1129 0001063  86.5601 217.7537 15.49273517  4580"
      },
      "geometry": {
        "type": "Point",
        "coordinates": [
          -164.7267656657256,
          26.489239783967587
        ]
      }
    },
    {
      "type": "Feature",
      "properties": {
        "norad_id": 66642,
        "name": "STARLINK-35926",
        "group": "last-30-days",
        "lat": 25.083987258028355,
        "lon": -166.11625478222246,
        "alt_km": 415.45782070020414,
        "timestamp": "2025-12-15T14:57:56.621413+00:00",
        "meta_object_name": "STARLINK-35926",
        "meta_object_id": "2025-271AB",
        "meta_epoch": "2025-12-14T20:00:06.000192",
        "meta_mean_motion": 15.49286374,
        "meta_eccentricity": 6.48e-05,
        "meta_inclination": 53.1594,
        "meta_ra_of_asc_node": 177.1178,
        "meta_arg_of_pericenter": 68.5441,
        "meta_mean_anomaly": 233.8354,
        "meta_ephemeris_type": 0,
        "meta_classification_type": "U",
        "meta_norad_cat_id": 66642,
        "meta_element_set_no": 999,
        "meta_rev_at_epoch": 434,
        "meta_bstar": 0.00065501971,
        "meta_mean_motion_dot": 0.00036121,
        "meta_mean_motion_ddot": 0,
        "tle_line1": "1 66642U 25271AB  25348.83340278  .00036121  00000+0  65502-3 0  9991",
        "tle_line2": "2 66642  53.1594 177.1178 0000648  68.5441 233.8354 15.49286374  4349"
      },
      "geometry": {
        "type": "Point",
        "coordinates": [
          -166.11625478222246,
          25.083987258028355
        ]
      }
    }
  ]
}